OBJECT_NAME,OBJECT_ID,EPOCH,MEAN_MOTION,ECCENTRICITY,INCLINATION,RA_OF_ASC_NODE,ARG_OF_PERICENTER,MEAN_ANOMALY,EPHEMERIS_TYPE,CLASSIFICATION_TYPE,NORAD_CAT_ID,ELEMENT_SET_NO,REV_AT_EPOCH,BSTAR,MEAN_MOTION_DOT,MEAN_MOTION_DDOT
LEMUR-2-CELIJO-SB-PK,2025-276DW,2026-06-18T02:29:38.448672,14.99985523,.00086989,97.5249,239.8519,130.6126,229.5856,0,U,66781,999,2276,.3878121E-3,.4768E-4,0
LEMUR-2-FINNIAN,2025-276DX,2026-06-17T22:44:04.300800,15.00386873,.00088775,97.5288,239.9144,87.1691,273.0549,0,U,66782,999,2011,.46229679E-3,.5756E-4,0
LEMUR-2-STARLIGHT,2025-276DY,2026-06-18T02:30:31.854240,14.99048312,.00151433,97.5261,239.7132,125.5317,234.7322,0,U,66783,999,3033,.32224837E-3,.3861E-4,0
LEMUR-2-TARTIFLETTE,2025-276DZ,2026-06-18T02:28:18.786144,14.99076304,.00140682,97.5263,239.7175,131.7439,228.4990,0,U,66784,999,3033,.29052471E-3,.3477E-4,0
LEMUR-2-VUKASIN,2025-276EA,2026-06-17T10:17:40.677792,15.00370036,.00060024,97.5311,239.3626,121.7435,238.4374,0,U,66785,999,3018,.35548173E-3,.4408E-4,0
LEMUR-2-HOTSPUR-TOM,2025-276EB,2026-06-17T03:51:56.303712,14.98961077,.00154966,97.5263,238.7889,127.8317,232.4312,0,U,66786,999,3012,.37582599E-3,.4504E-4,0
LEMUR-2-MYRA,2025-276EC,2026-06-18T03:03:28.605024,15.00258649,.00167032,97.5215,239.9777,138.3676,221.8823,0,U,66787,999,3035,.54584539E-3,.6798E-4,0
LEMUR-2 FIKRETDENGIZ,2026-004A,2026-06-18T05:02:25.225152,14.88331357,.0010169,97.8017,167.7523,130.1036,230.1073,0,U,67363,999,2343,.37772145E-3,.3444E-4,0
TWILIGHT-1 OBJECT B,2026-004B,2026-06-17T23:10:50.469888,14.87704618,.00099964,97.8061,167.5267,122.1849,238.0339,0,U,67364,999,2340,.16694231E-3,.1468E-4,0
LEMUR-2-MARIO-SOUSA,2026-004C,2026-06-17T23:48:14.531040,14.88518565,.0009717,97.7987,167.5337,131.4058,228.7995,0,U,67365,999,2341,.38361555E-3,.3515E-4,0
LEMUR-2-SONNENBLUME,2026-004E,2026-06-17T23:46:04.869696,14.88318947,.0009216,97.7983,167.5165,132.8956,227.3036,0,U,67367,999,2341,.23534466E-3,.2124E-4,0
LEMUR-2-WOBLER,2026-004F,2026-06-18T06:03:44.783424,14.88522088,.00096641,97.8039,167.8979,122.7312,237.4838,0,U,67368,999,2345,.29278013E-3,.2669E-4,0
LEMUR-2-GRAM-E-SUE,2026-004H,2026-06-18T07:27:07.741728,14.88474915,.00082598,97.7971,167.8467,132.5729,227.6186,0,U,67370,999,2346,.17116367E-3,.1535E-4,0
LEMUR-2-KATIE,2026-004AA,2026-06-17T23:03:35.412192,14.90052933,.00048599,97.8034,167.9644,91.4386,268.7388,0,U,67387,999,2342,.28486828E-3,.2696E-4,0
LEMUR-2-HCS-BAZUS,2026-004AB,2026-06-17T23:02:13.185312,14.90078149,.00044365,97.8022,167.9443,88.8187,271.3539,0,U,67388,999,2342,.45831617E-3,.4374E-4,0
