LEMUR-2-CELIJO-SB-PK    
1 66781U 25276DW  26169.10391723  .00004768  00000+0  38781-3 0  9994
2 66781  97.5249 239.8519 0008698 130.6126 229.5856 14.99985523 22762
LEMUR-2-FINNIAN         
1 66782U 25276DX  26168.94727200  .00005756  00000+0  46230-3 0  9995
2 66782  97.5288 239.9144 0008877  87.1691 273.0549 15.00386873 20119
LEMUR-2-STARLIGHT       
1 66783U 25276DY  26169.10453535  .00003861  00000+0  32225-3 0  9996
2 66783  97.5261 239.7132 0015143 125.5317 234.7322 14.99048312 30330
LEMUR-2-TARTIFLETTE     
1 66784U 25276DZ  26169.10299521  .00003477  00000+0  29052-3 0  9997
2 66784  97.5263 239.7175 0014068 131.7439 228.4990 14.99076304 30332
LEMUR-2-VUKASIN         
1 66785U 25276EA  26168.42894303  .00004408  00000+0  35548-3 0  9993
2 66785  97.5311 239.3626 0006002 121.7435 238.4374 15.00370036 30180
LEMUR-2-HOTSPUR-TOM     
1 66786U 25276EB  26168.16106833  .00004504  00000+0  37583-3 0  9997
2 66786  97.5263 238.7889 0015496 127.8317 232.4312 14.98961077 30121
LEMUR-2-MYRA            
1 66787U 25276EC  26169.12741441  .00006798  00000+0  54585-3 0  9993
2 66787  97.5215 239.9777 0016703 138.3676 221.8823 15.00258649 30357
LEMUR-2 FIKRETDENGIZ    
1 67363U 26004A   26169.21001418  .00003444  00000+0  37772-3 0  9991
2 67363  97.8017 167.7523 0010169 130.1036 230.1073 14.88331357 23432
TWILIGHT-1 OBJECT B     
1 67364U 26004B   26168.96586192  .00001468  00000+0  16694-3 0  9994
2 67364  97.8061 167.5267 0009996 122.1849 238.0339 14.87704618 23406
LEMUR-2-MARIO-SOUSA     
1 67365U 26004C   26168.99183485  .00003515  00000+0  38362-3 0  9997
2 67365  97.7987 167.5337 0009717 131.4058 228.7995 14.88518565 23417
LEMUR-2-SONNENBLUME     
1 67367U 26004E   26168.99033414  .00002124  00000+0  23534-3 0  9995
2 67367  97.7983 167.5165 0009216 132.8956 227.3036 14.88318947 23413
LEMUR-2-WOBLER          
1 67368U 26004F   26169.25260166  .00002669  00000+0  29278-3 0  9997
2 67368  97.8039 167.8979 0009664 122.7312 237.4838 14.88522088 23453
LEMUR-2-GRAM-E-SUE      
1 67370U 26004H   26169.31050627  .00001535  00000+0  17116-3 0  9995
2 67370  97.7971 167.8467 0008259 132.5729 227.6186 14.88474915 23465
LEMUR-2-KATIE           
1 67387U 26004AA  26168.96082653  .00002696  00000+0  28487-3 0  9999
2 67387  97.8034 167.9644 0004859  91.4386 268.7388 14.90052933 23427
LEMUR-2-HCS-BAZUS       
1 67388U 26004AB  26168.95987483  .00004374  00000+0  45832-3 0  9992
2 67388  97.8022 167.9443 0004436  88.8187 271.3539 14.90078149 23427
